K16Y00Z 21.3   0.15 K1794  95.58070  188.57735  324.79883   12.27796  0.3947519  0.46713044   1.6450431  4 MPO409573    51   1  128 days 0.35 M-v 3Eh MPCLINUX   A803          2016 YZ            20170425
K16Y01A 23.7   0.15 K1794 158.24355  292.61884  271.07268   16.62127  0.1581391  1.01322861   0.9817429  7 MPO394960    64   1   11 days 0.32 M-v 3Eh MPCADO     2802          2016 YA1           20161230
K16Y01M 22.1   0.15 K1794  69.95302  284.46646  180.19877    5.65591  0.5419892  0.29301344   2.2449725  4 MPO411583   132   1   87 days 0.28 M-v 3Eh MPCLINUX   2804          2016 YM1           20170319
K16Y01N 23.6   0.15 K1794 142.01004   41.50572  131.94981    7.67271  0.2226800  0.79726303   1.1518651  4 MPO412082    38   2 2016-2017 0.27 M-v 3Eh MPCW       0803          2016 YN1           20170617
K16Y03E 21.0   0.15 K1794 100.88280  272.00562  188.80409   13.15108  0.2562936  0.44552805   1.6977980  3 MPO403124    37   1  107 days 0.29 M-v 38h MPCLINUX   2804          2016 YE3           20170216
K16Y03H 24.5   0.15 K1794  77.65330   27.14872  136.01255    3.64101  0.5901485  0.37785590   1.8948954  7 MPO394963    17   1    6 days 0.26 M-v 3Eh MPCADO     2803          2016 YH3           20161229
K16Y03J 23.2   0.15 K1794 139.44944  244.11882  257.96240   16.82922  0.1491567  0.69868140   1.2578145  6 MPO403124    28   1   26 days 0.32 M-v 3Eh MPCADO     2804          2016 YJ3           20170118
K16Y03L 25.3   0.15 K1794 141.92650  111.37027  283.71834    6.81878  0.4597541  0.47399333   1.6291256  7 MPO394963    32   1   16 days 0.38 M-v 3Eh MPCADO     2803          2016 YL3           20170108
K16Y03M 26.8   0.15 K1794  96.27424  228.05688  263.92375    1.99335  0.4589351  0.43366456   1.7286222  6 MPO403124    30   1    4 days 0.43 M-v 3Eh MPCALB     2803          2016 YM3           20161228
K16Y03N 23.0   0.15 K1794 136.64559  132.85527  272.29811   52.90271  0.3716623  0.45503530   1.6740663  8 MPO394963    24   1    7 days 0.35 M-v 3Eh MPCADO     2804          2016 YN3           20161231
K16Y03O 20.1   0.15 K1794  10.48779  342.69554  285.46409   22.10196  0.2675864  0.69223647   1.2656095  4 MPO403124    58   1   65 days 0.32 M-h 3Eh MPCLINUX   2803          2016 YO3           20170227
K16Y04J 23.3   0.15 K1794  45.66142  348.27320  155.31664    7.14800  0.6453529  0.22277136   2.6950272  5 MPO403124    29   1   35 days 0.34 M-v 3Eh MPCALB     2803          2016 YJ4           20170127
K16Y04K 26.1   0.15 K1794  72.87494   43.81090  264.69580   10.13278  0.2399334  1.21433848   0.8701141  7 MPO394964    20   1    8 days 0.11 M-v 3Eh MPCADO     2802          2016 YK4           20161231
K16Y04L 20.3   0.15 K1794 139.24010   76.21254  292.38739   35.47176  0.4535352  0.38504637   1.8712308  6 MPO403124    34   1   34 days 0.32 M-v 3Eh MPCALB     2804          2016 YL4           20170126
K16Y04M 22.4   0.15 K1794  66.98550  236.49311  130.36621    3.23094  0.7291200  0.21425536   2.7659750  5 MPO419558    60   1   40 days 0.34 M-v 3Eh MPCLINUX   2803          2016 YM4           20170202
K16Y04N 19.7   0.15 K1794  77.16252   39.63432  341.31840    8.28859  0.7118059  0.25608333   2.4559254  4 MPO403124   170   1   63 days 0.37 M-h 3Eh MPCLINUX   2803          2016 YN4           20170225
K16Y04P 27.0   0.15 K1794 150.44308  297.85304  188.09381    0.99884  0.2090425  0.67977541   1.2810294  4 MPO409573    48   1   86 days 0.31 M-v 3Eh MPCLINUX   2804          2016 YP4           20170318
K16Y07W 20.5   0.15 K1794 334.27983   80.97363  223.99552   16.32117  0.4489146  0.88839933   1.0716770  5 MPO403124    50   1   55 days 0.31 M-h 3Eh MPCLINUX   A803          2016 YW7           20170216
K16Y07X 21.3   0.15 K1794  71.25138  292.82140  270.66798   11.55114  0.4599264  0.45267813   1.6798727  3 MPO416419    46   1  207 days 0.21 M-v 3Eh MPCLINUX   0803          2016 YX7           20170717
K16Y07Y 20.7   0.15 K1794 111.58404  305.46126  112.25786   26.24717  0.3537386  0.35240618   1.9850603  4 MPO403124    43   1   55 days 0.29 M-v 38h MPCLINUX   2804          2016 YY7           20170216
K16Y08B 24.5   0.15 K1794  64.20137  169.44443  340.72797    1.83114  0.5983203  0.30546948   2.1835216  7 MPO394969    62   1    8 days 0.62 M-v 3Eh MPCADO     2803          2016 YB8           20170104
K16Y08C 24.6   0.15 K1794 145.98316  258.13256  295.67577    6.06487  0.2237550  0.87081908   1.0860523  6 MPO403124    81   1   23 days 0.46 M-v 3Eh MPCALB     2803          2016 YC8           20170118
K16Y08D 22.9   0.15 K1794  77.22986  307.80278   79.74210   13.97165  0.6476580  0.25366572   2.4715052  5 MPO403124    31   1   35 days 0.21 M-h 3Eh MPCLINUX   2803          2016 YD8           20170131
K16Y08F 22.6   0.15 K1794 233.60624  181.93196  217.80829    7.77980  0.2093137  0.78011647   1.1686822  6 MPO403124    46   1   36 days 0.38 M-v 3Eh MPCALB     2803          2016 YF8           20170127
K16Y08G 21.9   0.15 K1794 122.26405  279.58035  125.98835   16.96712  0.2889561  0.40139403   1.8200729  6 MPO394970    14   1   14 days 0.43 M-v 38h MPCALB     2804          2016 YG8           20170106
K16Y08H 21.9   0.15 K1794 148.01937  299.93876  136.81589    8.68973  0.1845791  0.54552106   1.4834117  4 MPO403124    33   1   34 days 0.32 M-v 38h MPCADO     2804          2016 YH8           20170126
K16Y08J 23.8   0.15 K1794  90.68026  314.47630  136.49473    9.15024  0.4446295  0.35349649   1.9809764  5 MPO403124    25   1   32 days 0.33 M-v 38h MPCALB     2804          2016 YJ8           20170126
K16Y08Q 22.9   0.15 K1794  56.17884  190.91284  309.78473    5.43468  0.5004737  0.27596354   2.3365132  4 MPO409573    61   1   85 days 0.37 M-v 38h MPCLINUX   2804          2016 YQ8           20170319
K16Y08R 18.8   0.15 K1794  90.53756   59.61322  325.22480   30.26986  0.5098336  0.24157832   2.5532740  4 MPO409573    50   1   61 days 0.25 M-v 38h MPCLINUX   2804          2016 YR8           20170223
K16Y08S 21.4   0.15 K1794 267.96158   49.73366  284.75075   36.81950  0.3499697  0.75344473   1.1961026  7 MPO394971    47   1   11 days 0.29 M-v 3Eh MPCALB     2803          2016 YS8           20170107
K16Y08T 20.4   0.15 K1794  59.00337  121.10060   75.57214    9.09949  0.6266369  0.34948354   1.9961120  4 MPO412082   182   2 2016-2017 0.41 M-v 3Eh MPCLINUX   8803          2016 YT8           20170704
K16Y08U 20.1   0.15 K1794  61.51364   96.74958   93.99011   22.89900  0.4033478  0.40689234   1.8036394  2 MPO416419   142   1  200 days 0.35 M-v 3Eh MPCLINUX   0804          2016 YU8           20170715
K16Y08V 19.6   0.15 K1794 140.21653  302.54892  111.92142   33.37243  0.3381302  0.43768381   1.7180233  4 MPO409573    71   1   79 days 0.35 M-v 38h MPCLINUX   2804          2016 YV8           20170316
K16Y10U 19.0   0.15 K1794  37.77391  100.68377   82.24084   26.80881  0.5068265  0.23711811   2.5851926  2 MPO413697    92   1  175 days 0.26 M-v 38h MPCLINUX   0804          2016 YU10          20170617
K16Y10Y 25.9   0.15 K1794 242.39634  116.24954  272.98038   14.55167  0.2173283  0.78886354   1.1600271  7 MPO394974    14   1    4 days 0.28 M-v 3Eh MPCW       2803          2016 YY10          20170101
K16Y10Z 20.9   0.15 K1794  76.25275  346.05016  101.89283   24.39272  0.4577888  0.28872127   2.2671671  4 MPO403124    74   1   50 days 0.37 M-v 38h MPCLINUX   2804          2016 YZ10          20170217
K16Y11B 21.6   0.15 K1794 113.83506  304.23981   77.20583   14.51911  0.5299840  0.37413769   1.9074291  7 MPO403124    57   1   18 days 0.40 M-v 3Eh MPCALB     A803          2016 YB11          20170117
K16Y11E 19.6   0.15 K1794  73.93920  323.67363   70.60698    7.41643  0.5684467  0.22297704   2.6933696  4 MPO394975    62   1   62 days 0.28 M-v 38h MPCALB     2804          2016 YE11          20170109
K16Y11F 20.7   0.15 K1794  94.25251   14.67298  119.70581   17.15433  0.4059074  0.42673279   1.7472915  1 E2017-W02    92   2 2010-2017 0.49 M-v 3Eh MPCLINUX   0804          2016 YF11          20170522
K16Y13N 20.9   0.15 K1794  57.89295  334.89754  158.43966   11.39343  0.5299826  0.23280824   2.6170006  1 MPO409574    63   2 2000-2017 0.60 M-v 38h MPCW       0804          2016 YN13          20170417
K17A03D 23.4   0.15 K1794 122.98081  227.51858  276.16454   38.58652  0.3017563  0.59437497   1.4009707  8 MPO403125    25   1    7 days 0.29 M-v 3Eh MPCADO     2803          2017 AD3           20170109
K17A03E 21.8   0.15 K1794 116.21812  107.40677  269.53132    9.48569  0.6404490  0.39413455   1.8423538  6 MPO403125   119   1   26 days 0.32 M-h 3Eh MPCLINUX   A803          2017 AE3           20170128
K17A03F 25.3   0.15 K1794 148.43357  281.43333  287.13301   14.74290  0.1908789  0.95535023   1.0210045  7 MPO403125    41   1   15 days 0.41 M-v 3Eh MPCADO     2803          2017 AF3           20170118
K17A03G 25.4   0.15 K1794 150.17695    5.96682   24.89793    1.58961  0.4755552  0.50101843   1.5700022  8 MPO394977    15   1    6 days 0.32 M-v 3Eh MPCADO     2803          2017 AG3           20170108
K17A03H 23.3   0.15 K1794  61.19765  343.63419  290.72241   17.76983  0.1188535  0.95509886   1.0211836  4 MPO403125    30   1   42 days 0.37 M-h 3Eh MPCLINUX   2803          2017 AH3           20170204
K17A03J 24.3   0.15 K1794 180.64918  163.32269  288.72513   26.19920  0.1289814  0.70596270   1.2491508  7 MPO403125    26   1   16 days 0.32 M-v 3Eh MPCALB     2804          2017 AJ3           20170119
K17A03K 24.6   0.15 K1794  82.99116  218.97778  310.79268    6.43511  0.4661435  0.44090325   1.7096499  5 MPO403125    38   1   29 days 0.35 M-v 3Eh MPCALB     2803          2017 AK3           20170131
K17A03V 19.5   0.15 K1794 183.94804  193.80245  128.34586   36.48620  0.5118145  0.49386596   1.5851243  5 MPO403125    31   1   32 days 0.23 M-v 3Eh MPCALB     2803          2017 AV3           20170203
K17A03W 20.9   0.15 K1794 119.63560  186.45058  253.25411   33.82194  0.2777101  0.43848496   1.7159301  5 MPO403125    21   1   46 days 0.16 M-v 38h MPCLINUX   2804          2017 AW3           20170217
